GLOBALSTAR M040         
1 25622U 99004B   24197.71694218 -.00000090  00000+0  75854-4 0  9992
2 25622  51.9937   1.6297 0001285  60.7085 312.6100 12.61977103172774
GLOBALSTAR M036         
1 25623U 99004C   24197.95231816 -.00000027  00000+0  81403-3 0  9996
2 25623  51.9977  46.5430 0011684 122.3405  17.5386 11.86570688139066
GLOBALSTAR M038         
1 25624U 99004D   24197.81043861 -.00000055  00000+0  33012-3 0  9997
2 25624  51.9993 320.2809 0002446  86.2517  73.7446 12.32503008160895
GLOBALSTAR M046         
1 25651U 99012C   24197.95824675 -.00000203  00000+0 -12558-2 0  9998
2 25651  52.0058  87.3221 0002089 320.4932  53.2221 12.09392731142982
GLOBALSTAR M037         
1 25652U 99012D   24197.84104088 -.00000050  00000+0  30138-3 0  9990
2 25652  51.9997 128.3391 0001620 148.2858 247.0937 12.62411514168794
